{
  "type": "FeatureCollection",
  "features": [
    {
      "type": "Feature",
      "properties": {
        "norad_id": 35618,
        "name": "IRIDIUM 33 DEB",
        "group": "iridium-33-debris",
        "lat": -56.671134778244245,
        "lon": -18.467570966154778,
        "alt_km": 707.8070531743278,
        "timestamp": "2025-12-27T08:36:18.769490+00:00",
        "meta_object_name": "IRIDIUM 33 DEB",
        "meta_object_id": "1997-051QQ",
        "meta_epoch": "2025-12-26T06:24:30.351744",
        "meta_mean_motion": 14.52352312,
        "meta_eccentricity": 0.0027953,
        "meta_inclination": 86.3436,
        "meta_ra_of_asc_node": 347.5894,
        "meta_arg_of_pericenter": 336.1587,
        "meta_mean_anomaly": 23.8322,
        "meta_ephemeris_type": 0,
        "meta_classification_type": "U",
        "meta_norad_cat_id": 35618,
        "meta_element_set_no": 999,
        "meta_rev_at_epoch": 65590,
        "meta_bstar": 0.00055338,
        "meta_mean_motion_dot": 2.283e-05,
        "meta_mean_motion_ddot": 0,
        "tle_line1": "1 35618U 97051QQ  25360.26701796  .00002283  00000+0  55338-3 0  9990",
        "tle_line2": "2 35618  86.3436 347.5894 0027953 336.1587  23.8322 14.52352312655907"
      },
      "geometry": {
        "type": "Point",
        "coordinates": [
          -18.467570966154778,
          -56.671134778244245
        ]
      }
    },
    {
      "type": "Feature",
      "properties": {
        "norad_id": 35620,
        "name": "IRIDIUM 33 DEB",
        "group": "iridium-33-debris",
        "lat": -86.24371761131512,
        "lon": 105.41466362345894,
        "alt_km": 718.89781494609,
        "timestamp": "2025-12-27T08:36:18.769500+00:00",
        "meta_object_name": "IRIDIUM 33 DEB",
        "meta_object_id": "1997-051QS",
        "meta_epoch": "2025-12-27T00:40:58.732320",
        "meta_mean_motion": 14.38490668,
        "meta_eccentricity": 0.0137966,
        "meta_inclination": 86.3889,
        "meta_ra_of_asc_node": 211.4274,
        "meta_arg_of_pericenter": 211.239,
        "meta_mean_anomaly": 148.0558,
        "meta_ephemeris_type": 0,
        "meta_classification_type": "U",
        "meta_norad_cat_id": 35620,
        "meta_element_set_no": 999,
        "meta_rev_at_epoch": 60171,
        "meta_bstar": 0.0055098,
        "meta_mean_motion_dot": 0.00018851,
        "meta_mean_motion_ddot": 0,
        "tle_line1": "1 35620U 97051QS  25361.02845755  .00018851  00000+0  55098-2 0  9992",
        "tle_line2": "2 35620  86.3889 211.4274 0137966 211.2390 148.0558 14.38490668601716"
      },
      "geometry": {
        "type": "Point",
        "coordinates": [
          105.41466362345894,
          -86.24371761131512
        ]
      }
    },
    {
      "type": "Feature",
      "properties": {
        "norad_id": 35622,
        "name": "IRIDIUM 33 DEB",
        "group": "iridium-33-debris",
        "lat": -74.48943993977588,
        "lon": -117.46768426009812,
        "alt_km": 553.0133624445361,
        "timestamp": "2025-12-27T08:36:18.769511+00:00",
        "meta_object_name": "IRIDIUM 33 DEB",
        "meta_object_id": "1997-051QU",
        "meta_epoch": "2025-12-26T17:07:03.979200",
        "meta_mean_motion": 15.06225935,
        "meta_eccentricity": 0.00029087,
        "meta_inclination": 86.1991,
        "meta_ra_of_asc_node": 256.7114,
        "meta_arg_of_pericenter": 269.1211,
        "meta_mean_anomaly": 119.0846,
        "meta_ephemeris_type": 0,
        "meta_classification_type": "U",
        "meta_norad_cat_id": 35622,
        "meta_element_set_no": 999,
        "meta_rev_at_epoch": 87570,
        "meta_bstar": 0.0038578088,
        "meta_mean_motion_dot": 0.00056954,
        "meta_mean_motion_ddot": 0,
        "tle_line1": "1 35622U 97051QU  25360.71324050  .00056954  00000+0  38578-2 0  9999",
        "tle_line2": "2 35622  86.1991 256.7114 0002908 269.1211 119.0846 15.06225935875705"
      },
      "geometry": {
        "type": "Point",
        "coordinates": [
          -117.46768426009812,
          -74.48943993977588
        ]
      }
    },
    {
      "type": "Feature",
      "properties": {
        "norad_id": 35628,
        "name": "IRIDIUM 33 DEB",
        "group": "iridium-33-debris",
        "lat": -72.04628833825848,
        "lon": -8.784218255143408,
        "alt_km": 669.0055280408233,
        "timestamp": "2025-12-27T08:36:18.769521+00:00",
        "meta_object_name": "IRIDIUM 33 DEB",
        "meta_object_id": "1997-051RA",
        "meta_epoch": "2025-12-26T06:45:19.101312",
        "meta_mean_motion": 14.67776082,
        "meta_eccentricity": 0.0009237,
        "meta_inclination": 86.3573,
        "meta_ra_of_asc_node": 3.0346,
        "meta_arg_of_pericenter": 290.0377,
        "meta_mean_anomaly": 69.9843,
        "meta_ephemeris_type": 0,
        "meta_classification_type": "U",
        "meta_norad_cat_id": 35628,
        "meta_element_set_no": 999,
        "meta_rev_at_epoch": 86645,
        "meta_bstar": 0.0014359,
        "meta_mean_motion_dot": 8.215e-05,
        "meta_mean_motion_ddot": 0,
        "tle_line1": "1 35628U 97051RA  25360.28147108  .00008215  00000+0  14359-2 0  9992",
        "tle_line2": "2 35628  86.3573   3.0346 0009237 290.0377  69.9843 14.67776082866459"
      },
      "geometry": {
        "type": "Point",
        "coordinates": [
          -8.784218255143408,
          -72.04628833825848
        ]
      }
    },
    {
      "type": "Feature",
      "properties": {
        "norad_id": 35631,
        "name": "IRIDIUM 33 DEB",
        "group": "iridium-33-debris",
        "lat": -14.436013297371007,
        "lon": -164.38267746589344,
        "alt_km": 746.0083362784517,
        "timestamp": "2025-12-27T08:36:18.769532+00:00",
        "meta_object_name": "IRIDIUM 33 DEB",
        "meta_object_id": "1997-051RD",
        "meta_epoch": "2025-12-25T01:14:45.811104",
        "meta_mean_motion": 14.47344148,
        "meta_eccentricity": 0.00192475,
        "meta_inclination": 86.3663,
        "meta_ra_of_asc_node": 15.6731,
        "meta_arg_of_pericenter": 81.4254,
        "meta_mean_anomaly": 341.8279,
        "meta_ephemeris_type": 0,
        "meta_classification_type": "U",
        "meta_norad_cat_id": 35631,
        "meta_element_set_no": 999,
        "meta_rev_at_epoch": 87375,
        "meta_bstar": 0.00038061169,
        "meta_mean_motion_dot": 1.417e-05,
        "meta_mean_motion_ddot": 0,
        "tle_line1": "1 35631U 97051RD  25359.05191911  .00001417  00000+0  38061-3 0  9994",
        "tle_line2": "2 35631  86.3663  15.6731 0019247  81.4254 341.8279 14.47344148873756"
      },
      "geometry": {
        "type": "Point",
        "coordinates": [
          -164.38267746589344,
          -14.436013297371007
        ]
      }
    },
    {
      "type": "Feature",
      "properties": {
        "norad_id": 35680,
        "name": "IRIDIUM 33 DEB",
        "group": "iridium-33-debris",
        "lat": -42.946351736696954,
        "lon": -161.31411685123086,
        "alt_km": 720.8409600867944,
        "timestamp": "2025-12-27T08:36:18.769542+00:00",
        "meta_object_name": "IRIDIUM 33 DEB",
        "meta_object_id": "1997-051RJ",
        "meta_epoch": "2025-12-26T12:00:19.371744",
        "meta_mean_motion": 14.21136562,
        "meta_eccentricity": 0.0150773,
        "meta_inclination": 86.1027,
        "meta_ra_of_asc_node": 15.428,
        "meta_arg_of_pericenter": 234.4546,
        "meta_mean_anomaly": 280.2175,
        "meta_ephemeris_type": 0,
        "meta_classification_type": "U",
        "meta_norad_cat_id": 35680,
        "meta_element_set_no": 999,
        "meta_rev_at_epoch": 60896,
        "meta_bstar": 0.0033475,
        "meta_mean_motion_dot": 8.18e-05,
        "meta_mean_motion_ddot": 0,
        "tle_line1": "1 35680U 97051RJ  25360.50022421  .00008180  00000+0  33475-2 0  9996",
        "tle_line2": "2 35680  86.1027  15.4280 0150773 234.4546 280.2175 14.21136562608964"
      },
      "geometry": {
        "type": "Point",
        "coordinates": [
          -161.31411685123086,
          -42.946351736696954
        ]
      }
    },
    {
      "type": "Feature",
      "properties": {
        "norad_id": 35744,
        "name": "IRIDIUM 33 DEB",
        "group": "iridium-33-debris",
        "lat": 4.228870339558429,
        "lon": -40.89771465088596,
        "alt_km": 671.2473202330593,
        "timestamp": "2025-12-27T08:36:18.769553+00:00",
        "meta_object_name": "IRIDIUM 33 DEB",
        "meta_object_id": "1997-051RX",
        "meta_epoch": "2025-12-27T03:41:19.438080",
        "meta_mean_motion": 14.71188537,
        "meta_eccentricity": 0.0022271,
        "meta_inclination": 86.33,
        "meta_ra_of_asc_node": 318.9229,
        "meta_arg_of_pericenter": 142.0828,
        "meta_mean_anomaly": 218.1962,
        "meta_ephemeris_type": 0,
        "meta_classification_type": "U",
        "meta_norad_cat_id": 35744,
        "meta_element_set_no": 999,
        "meta_rev_at_epoch": 87543,
        "meta_bstar": 0.001404,
        "meta_mean_motion_dot": 8.708e-05,
        "meta_mean_motion_ddot": 0,
        "tle_line1": "1 35744U 97051RX  25361.15369720  .00008708  00000+0  14040-2 0  9998",
        "tle_line2": "2 35744  86.3300 318.9229 0022271 142.0828 218.1962 14.71188537875439"
      },
      "geometry": {
        "type": "Point",
        "coordinates": [
          -40.89771465088596,
          4.228870339558429
        ]
      }
    }
  ]
}